CCSDS_OMM_VERS = 2.0
CREATION_DATE  = 
ORIGINATOR     = 

OBJECT_NAME    = SL-4 R/B
OBJECT_ID      = 2014-021B
CENTER_NAME    = EARTH
REF_FRAME      = TEME
TIME_SYSTEM    = UTC
MEAN_ELEMENT_THEORY = SGP/SGP4

EPOCH          = 2025-12-15T08:19:50.748096
MEAN_MOTION    = 15.36736796
ECCENTRICITY   = .01015347
INCLINATION    = 51.6087
RA_OF_ASC_NODE = 27.9223
ARG_OF_PERICENTER = 155.5256
MEAN_ANOMALY   = 205.0596

EPHEMERIS_TYPE = 0
CLASSIFICATION_TYPE = U
NORAD_CAT_ID   = 39679
ELEMENT_SET_NO = 999
REV_AT_EPOCH   = 64329
BSTAR          = .18882893E-3
MEAN_MOTION_DOT = .7736E-4
MEAN_MOTION_DDOT = 0

CCSDS_OMM_VERS = 2.0
CREATION_DATE  = 
ORIGINATOR     = 

OBJECT_NAME    = ALOS-2
OBJECT_ID      = 2014-029A
CENTER_NAME    = EARTH
REF_FRAME      = TEME
TIME_SYSTEM    = UTC
MEAN_ELEMENT_THEORY = SGP/SGP4

EPOCH          = 2025-12-15T10:45:38.494080
MEAN_MOTION    = 14.79466450
ECCENTRICITY   = .0001396
INCLINATION    = 97.9228
RA_OF_ASC_NODE = 84.2561
ARG_OF_PERICENTER = 102.6920
MEAN_ANOMALY   = 257.4448

EPHEMERIS_TYPE = 0
CLASSIFICATION_TYPE = U
NORAD_CAT_ID   = 39766
ELEMENT_SET_NO = 999
REV_AT_EPOCH   = 62441
BSTAR          = .30229E-3
MEAN_MOTION_DOT = .2206E-4
MEAN_MOTION_DDOT = 0

CCSDS_OMM_VERS = 2.0
CREATION_DATE  = 
ORIGINATOR     = 

OBJECT_NAME    = YAOGAN-29
OBJECT_ID      = 2015-069A
CENTER_NAME    = EARTH
REF_FRAME      = TEME
TIME_SYSTEM    = UTC
MEAN_ELEMENT_THEORY = SGP/SGP4

EPOCH          = 2025-12-15T07:35:25.749600
MEAN_MOTION    = 14.82888391
ECCENTRICITY   = .00001224
INCLINATION    = 98.0225
RA_OF_ASC_NODE = 12.4967
ARG_OF_PERICENTER = 207.3114
MEAN_ANOMALY   = 152.8093

EPHEMERIS_TYPE = 0
CLASSIFICATION_TYPE = U
NORAD_CAT_ID   = 41038
ELEMENT_SET_NO = 999
REV_AT_EPOCH   = 54337
BSTAR          = .12140414E-3
MEAN_MOTION_DOT = .93E-5
MEAN_MOTION_DDOT = 0

CCSDS_OMM_VERS = 2.0
CREATION_DATE  = 
ORIGINATOR     = 

OBJECT_NAME    = ASTRO-H (HITOMI)
OBJECT_ID      = 2016-012A
CENTER_NAME    = EARTH
REF_FRAME      = TEME
TIME_SYSTEM    = UTC
MEAN_ELEMENT_THEORY = SGP/SGP4

EPOCH          = 2025-12-14T22:31:35.642208
MEAN_MOTION    = 15.09368469
ECCENTRICITY   = .00096229
INCLINATION    = 30.9978
RA_OF_ASC_NODE = 183.1970
ARG_OF_PERICENTER = 201.1805
MEAN_ANOMALY   = 158.8435

EPHEMERIS_TYPE = 0
CLASSIFICATION_TYPE = U
NORAD_CAT_ID   = 41337
ELEMENT_SET_NO = 999
REV_AT_EPOCH   = 53941
BSTAR          = .16052885E-3
MEAN_MOTION_DOT = .2723E-4
MEAN_MOTION_DDOT = 0

CCSDS_OMM_VERS = 2.0
CREATION_DATE  = 
ORIGINATOR     = 

OBJECT_NAME    = HXMT (HUIYAN)
OBJECT_ID      = 2017-034A
CENTER_NAME    = EARTH
REF_FRAME      = TEME
TIME_SYSTEM    = UTC
MEAN_ELEMENT_THEORY = SGP/SGP4

EPOCH          = 2025-12-15T08:38:22.636608
MEAN_MOTION    = 15.16271302
ECCENTRICITY   = .0031288
INCLINATION    = 43.0126
RA_OF_ASC_NODE = 125.0867
ARG_OF_PERICENTER = 60.5229
MEAN_ANOMALY   = 299.8734

EPHEMERIS_TYPE = 0
CLASSIFICATION_TYPE = U
NORAD_CAT_ID   = 42758
ELEMENT_SET_NO = 999
REV_AT_EPOCH   = 46973
BSTAR          = .20222884E-3
MEAN_MOTION_DOT = .3793E-4
MEAN_MOTION_DDOT = 0

CCSDS_OMM_VERS = 2.0
CREATION_DATE  = 
ORIGINATOR     = 

OBJECT_NAME    = CZ-2C R/B
OBJECT_ID      = 2018-054D
CENTER_NAME    = EARTH
REF_FRAME      = TEME
TIME_SYSTEM    = UTC
MEAN_ELEMENT_THEORY = SGP/SGP4

EPOCH          = 2025-12-14T19:51:04.362912
MEAN_MOTION    = 15.74571175
ECCENTRICITY   = .00152502
INCLINATION    = 35.1318
RA_OF_ASC_NODE = 166.7371
ARG_OF_PERICENTER = 166.4249
MEAN_ANOMALY   = 193.6897

EPHEMERIS_TYPE = 0
CLASSIFICATION_TYPE = U
NORAD_CAT_ID   = 43521
ELEMENT_SET_NO = 999
REV_AT_EPOCH   = 41538
BSTAR          = .53786349E-3
MEAN_MOTION_DOT = .82844E-3
MEAN_MOTION_DDOT = 0

CCSDS_OMM_VERS = 2.0
CREATION_DATE  = 
ORIGINATOR     = 

OBJECT_NAME    = SAOCOM 1A
OBJECT_ID      = 2018-076A
CENTER_NAME    = EARTH
REF_FRAME      = TEME
TIME_SYSTEM    = UTC
MEAN_ELEMENT_THEORY = SGP/SGP4

EPOCH          = 2025-12-15T08:56:07.742112
MEAN_MOTION    = 14.82162194
ECCENTRICITY   = .00015189
INCLINATION    = 97.8848
RA_OF_ASC_NODE = 173.7559
ARG_OF_PERICENTER = 79.5366
MEAN_ANOMALY   = 280.6018

EPHEMERIS_TYPE = 0
CLASSIFICATION_TYPE = U
NORAD_CAT_ID   = 43641
ELEMENT_SET_NO = 999
REV_AT_EPOCH   = 38887
BSTAR          = .86425477E-4
MEAN_MOTION_DOT = .636E-5
MEAN_MOTION_DDOT = 0

CCSDS_OMM_VERS = 2.0
CREATION_DATE  = 
ORIGINATOR     = 

OBJECT_NAME    = H-2A R/B
OBJECT_ID      = 2018-084L
CENTER_NAME    = EARTH
REF_FRAME      = TEME
TIME_SYSTEM    = UTC
MEAN_ELEMENT_THEORY = SGP/SGP4

EPOCH          = 2025-12-15T07:06:01.941120
MEAN_MOTION    = 15.37469604
ECCENTRICITY   = .00271555
INCLINATION    = 98.8774
RA_OF_ASC_NODE = 183.9046
ARG_OF_PERICENTER = 317.6711
MEAN_ANOMALY   = 42.2433

EPHEMERIS_TYPE = 0
CLASSIFICATION_TYPE = U
NORAD_CAT_ID   = 43682
ELEMENT_SET_NO = 999
REV_AT_EPOCH   = 39279
BSTAR          = .365815E-3
MEAN_MOTION_DOT = .13507E-3
MEAN_MOTION_DDOT = 0

CCSDS_OMM_VERS = 2.0
CREATION_DATE  = 
ORIGINATOR     = 

OBJECT_NAME    = SAOCOM 1B
OBJECT_ID      = 2020-059A
CENTER_NAME    = EARTH
REF_FRAME      = TEME
TIME_SYSTEM    = UTC
MEAN_ELEMENT_THEORY = SGP/SGP4

EPOCH          = 2025-12-15T08:03:54.407232
MEAN_MOTION    = 14.82163907
ECCENTRICITY   = .00012571
INCLINATION    = 97.8842
RA_OF_ASC_NODE = 172.8205
ARG_OF_PERICENTER = 85.8709
MEAN_ANOMALY   = 274.2648

EPHEMERIS_TYPE = 0
CLASSIFICATION_TYPE = U
NORAD_CAT_ID   = 46265
ELEMENT_SET_NO = 999
REV_AT_EPOCH   = 28625
BSTAR          = .9294806E-4
MEAN_MOTION_DOT = .688E-5
MEAN_MOTION_DDOT = 0

CCSDS_OMM_VERS = 2.0
CREATION_DATE  = 
ORIGINATOR     = 

OBJECT_NAME    = CSS (TIANHE)
OBJECT_ID      = 2021-035A
CENTER_NAME    = EARTH
REF_FRAME      = TEME
TIME_SYSTEM    = UTC
MEAN_ELEMENT_THEORY = SGP/SGP4

EPOCH          = 2025-12-15T08:10:40.084608
MEAN_MOTION    = 15.59296400
ECCENTRICITY   = .0007961
INCLINATION    = 41.4685
RA_OF_ASC_NODE = 0.9167
ARG_OF_PERICENTER = 52.8673
MEAN_ANOMALY   = 307.2892

EPHEMERIS_TYPE = 0
CLASSIFICATION_TYPE = U
NORAD_CAT_ID   = 48274
ELEMENT_SET_NO = 999
REV_AT_EPOCH   = 26443
BSTAR          = .21537809E-3
MEAN_MOTION_DOT = .17163E-3
MEAN_MOTION_DDOT = 0

CCSDS_OMM_VERS = 2.0
CREATION_DATE  = 
ORIGINATOR     = 

OBJECT_NAME    = COSMOS 2550
OBJECT_ID      = 2021-056A
CENTER_NAME    = EARTH
REF_FRAME      = TEME
TIME_SYSTEM    = UTC
MEAN_ELEMENT_THEORY = SGP/SGP4

EPOCH          = 2025-12-14T22:38:04.544160
MEAN_MOTION    = 15.33830206
ECCENTRICITY   = .00084533
INCLINATION    = 67.1453
RA_OF_ASC_NODE = 297.2696
ARG_OF_PERICENTER = 271.0119
MEAN_ANOMALY   = 89.0067

EPHEMERIS_TYPE = 0
CLASSIFICATION_TYPE = U
NORAD_CAT_ID   = 48865
ELEMENT_SET_NO = 999
REV_AT_EPOCH   = 25046
BSTAR          = .4330936E-5
MEAN_MOTION_DOT = -.49E-6
MEAN_MOTION_DDOT = 0

CCSDS_OMM_VERS = 2.0
CREATION_DATE  = 
ORIGINATOR     = 

OBJECT_NAME    = CZ-2C R/B
OBJECT_ID      = 2022-058K
CENTER_NAME    = EARTH
REF_FRAME      = TEME
TIME_SYSTEM    = UTC
MEAN_ELEMENT_THEORY = SGP/SGP4

EPOCH          = 2025-12-15T09:19:02.343648
MEAN_MOTION    = 15.48647455
ECCENTRICITY   = .00451875
INCLINATION    = 50.1915
RA_OF_ASC_NODE = 30.0417
ARG_OF_PERICENTER = 209.4612
MEAN_ANOMALY   = 150.3808

EPHEMERIS_TYPE = 0
CLASSIFICATION_TYPE = U
NORAD_CAT_ID   = 52794
ELEMENT_SET_NO = 999
REV_AT_EPOCH   = 19704
BSTAR          = .34663115E-3
MEAN_MOTION_DOT = .19245E-3
MEAN_MOTION_DDOT = 0

