SL-4 R/B                
1 39679U 14021B   25349.34711514  .00007736  00000+0  18883-3 0  9994
2 39679  51.6087  27.9223 0101534 155.5256 205.0596 15.36736796643295
ALOS-2                  
1 39766U 14029A   25349.44836220  .00002206  00000+0  30229-3 0  9997
2 39766  97.9228  84.2561 0001396 102.6920 257.4448 14.79466450624412
YAOGAN-29               
1 41038U 15069A   25349.31627025  .00000930  00000+0  12140-3 0  9998
2 41038  98.0225  12.4967 0000122 207.3114 152.8093 14.82888391543378
ASTRO-H (HITOMI)        
1 41337U 16012A   25348.93860697  .00002723  00000+0  16053-3 0  9999
2 41337  30.9978 183.1970 0009622 201.1805 158.8435 15.09368469539418
HXMT (HUIYAN)           
1 42758U 17034A   25349.35998422  .00003793  00000+0  20223-3 0  9999
2 42758  43.0126 125.0867 0031288  60.5229 299.8734 15.16271302469738
CZ-2C R/B               
1 43521U 18054D   25348.82713383  .00082844  00000+0  53786-3 0  9997
2 43521  35.1318 166.7371 0015250 166.4249 193.6897 15.74571175415381
SAOCOM 1A               
1 43641U 18076A   25349.37231183  .00000636  00000+0  86425-4 0  9994
2 43641  97.8848 173.7559 0001518  79.5366 280.6018 14.82162194388879
H-2A R/B                
1 43682U 18084L   25349.29585580  .00013507  00000+0  36582-3 0  9991
2 43682  98.8774 183.9046 0027155 317.6711  42.2433 15.37469604392798
SAOCOM 1B               
1 46265U 20059A   25349.33604638  .00000688  00000+0  92948-4 0  9992
2 46265  97.8842 172.8205 0001257  85.8709 274.2648 14.82163907286257
CSS (TIANHE)            
1 48274U 21035A   25349.34074172  .00017163  00000+0  21538-3 0  9996
2 48274  41.4685   0.9167 0007961  52.8673 307.2892 15.59296400264433
COSMOS 2550             
1 48865U 21056A   25348.94310815 -.00000049  00000+0  43309-5 0  9995
2 48865  67.1453 297.2696 0008453 271.0119  89.0067 15.33830206250469
CZ-2C R/B               
1 52794U 22058K   25349.38822157  .00019245  00000+0  34663-3 0  9998
2 52794  50.1915  30.0417 0045187 209.4612 150.3808 15.48647455197049
